ARIANE 40 R/B           
1 20443U 90005H   25351.18686719  .00000265  00000+0  98006-4 0  9998
2 20443  98.3240  49.2391 0011277  93.7115 266.5364 14.39802062880938
DELTA 2 R/B(1)          
1 20453U 90008B   25351.07905596  .00036944  00000+0  58417-3 0  9991
2 20453  35.6075 352.5050 0111285 218.0651 141.2178 15.45568967913309
COSMOS 2058             
1 20465U 90010A   25351.32887070  .00004423  00000+0  26659-3 0  9991
2 20465  82.4680 128.5161 0008643 254.0594 105.9684 15.10515986929803
SL-14 R/B               
1 20466U 90010B   25351.06231683  .00000436  00000+0  50044-4 0  9992
2 20466  82.5019 344.9871 0019023 208.1642 151.8546 14.83475433916232
SL-14 R/B               
1 20511U 90018B   25351.33825860  .00000462  00000+0  55184-4 0  9996
2 20511  82.5212 300.0663 0016632   8.7253 351.4247 14.82051573910385
HST                     
1 20580U 90037B   25351.10253682  .00005953  00000+0  20311-3 0  9998
2 20580  28.4677 242.7933 0001895 295.0426  64.9973 15.28113078760661
SL-16 R/B               
1 20625U 90046B   25351.34091389 -.00000256  00000+0 -10738-3 0  9993
2 20625  70.9991 110.8588 0011916  64.9547 295.2811 14.15000156836745
COSMOS 2084             
1 20663U 90055A   25351.15251369  .00002233  00000+0  16908-3 0  9990
2 20663  62.7903 256.9569 0031018 175.2160 184.9243 15.05046350923894
SL-6 R/B(2)             
1 20666U 90055D   25351.22468983  .00001507  00000+0  12563-3 0  9999
2 20666  62.7817 174.1763 0013188 312.1939  47.8040 15.03094744925793
SL-8 R/B                
1 20775U 90078B   25351.30979265  .00016673  00000+0  51564-3 0  9998
2 20775  82.9044 325.2189 0371201 290.5209  65.6541 14.86124940797055
SL-8 R/B                
1 21088U 91006B   25351.19201162  .00000090  00000+0  75437-4 0  9991
2 21088  82.9423 231.4013 0021179 266.6093 205.8299 13.77490711752712
OKEAN-3                 
1 21397U 91039A   25351.27241633  .00003026  00000+0  21590-3 0  9998
2 21397  82.5180  56.6608 0013297 249.2352 110.7450 15.04151390852640
COSMOS 2151             
1 21422U 91042A   25351.22702803  .00001775  00000+0  14159-3 0  9999
2 21422  82.4962 163.1789 0012198 344.3776  15.7069 14.99702807850833
SL-14 R/B               
1 21423U 91042B   25351.30650872  .00000397  00000+0  47269-4 0  9995
2 21423  82.4931 297.4406 0017838 147.2781 212.9542 14.81743181840870
ERS-1                   
1 21574U 91050A   25351.32489571  .00000296  00000+0  10925-3 0  9995
2 21574  98.7902   2.4944 0033035  86.8609 273.6357 14.39368379803883
ARIANE 40 R/B           
1 21610U 91050F   25351.15549808  .00000303  00000+0  10351-3 0  9999
2 21610  98.2161  41.4267 0002521 345.8064  14.3055 14.42817051807098
INTERCOSMOS 25          
1 21819U 91086A   25351.25877194  .00001937  00000+0  38582-3 0  9992
2 21819  82.6066 359.8430 1486410 294.6548  50.6982 12.11743574486705
SL-8 R/B                
1 21876U 92008B   25351.34303228  .00000128  00000+0  11583-3 0  9995
2 21876  82.9267 329.0221 0034907   7.0971 102.4019 13.75959997698099
SL-8 R/B                
1 21938U 92020B   25351.14333194  .00000120  00000+0  10881-3 0  9993
2 21938  82.9300 215.0476 0029190 165.8600 308.0224 13.75528134689785
USA 81                  
1 21949U 92023A   25351.22561365  .00000185  00000+0  61254-4 0  9992
2 21949  85.0078 178.9889 0001242  71.2179 288.9148 14.32328534 82983
COSMOS 2219             
1 22219U 92076A   25350.96898455  .00000115  00000+0  85022-4 0  9996
2 22219  71.0571 190.9917 0019147 321.1380  38.8365 14.14063206706682
SL-16 R/B               
1 22220U 92076B   25351.29642109  .00000194  00000+0  12045-3 0  9999
2 22220  71.0005   1.9331 0014540 227.8141 143.3203 14.16841781710161
COSMOS 2221             
1 22236U 92080A   25351.29995341  .00001873  00000+0  16524-3 0  9991
2 22236  82.5040 357.9606 0016220 107.6685 252.6310 14.95778143768476
SL-16 R/B               
1 22285U 92093B   25351.26703816  .00000292  00000+0  17397-3 0  9993
2 22285  71.0200 177.2921 0002272  56.0210 304.1129 14.15432782701495
COSMOS 2228             
1 22286U 92094A   25351.30320875  .00002029  00000+0  17477-3 0  9999
2 22286  82.5178 316.1676 0016836 214.9775 145.0343 14.96750653763734
SL-16 R/B               
1 22566U 93016B   25351.29923502  .00000162  00000+0  10757-3 0  9999
2 22566  71.0079  28.2275 0007983  88.8250 271.3787 14.15287669690516
COSMOS 2242             
1 22626U 93024A   25351.25058310  .00001597  00000+0  13936-3 0  9992
2 22626  82.5184 345.5331 0015235 217.6874 142.3282 14.96124629768066
SL-16 R/B               
1 22803U 93059B   25350.96704486 -.00000123  00000+0 -36910-4 0  9990
2 22803  70.9880 185.5719 0018211 329.5752  30.4313 14.17213024667818
ARIANE 40 R/B           
1 22830U 93061H   25351.15743713  .00000233  00000+0  10133-3 0  9999
2 22830  98.5073  56.6070 0011136 163.2166 196.9389 14.32804323682281
COSMOS 2278             
1 23087U 94023A   25351.27448165 -.00000206  00000+0 -82890-4 0  9991
2 23087  71.0536 347.5235 0008085 171.9662 188.1592 14.14349084633156
SL-16 R/B               
1 23088U 94023B   25351.14643226 -.00000154  00000+0 -54726-4 0  9992
2 23088  70.9997 244.2320 0001629  14.1540 345.9628 14.15002573634417
SL-16 R/B               
1 23343U 94074B   25351.33260765  .00000421  00000+0  63274-4 0  9999
2 23343  97.7198  20.4546 0007777 123.0576 247.5732 14.79294964675071
SL-16 R/B               
1 23405U 94077B   25351.23091268  .00000154  00000+0  10323-3 0  9999
2 23405  70.9814 165.9653 0004824 281.4972  78.5609 14.15552289604569
ARIANE 40+ R/B          
1 23561U 95021B   25351.18321631  .00000274  00000+0  10135-3 0  9990
2 23561  98.4648  58.7185 0007280  37.9204  16.4007 14.39698890607372
SL-16 R/B               
1 23705U 95058B   25351.30448394 -.00000154  00000+0 -54468-4 0  9997
2 23705  71.0224 353.2207 0014952 249.5954 110.3563 14.15483857556197
SL-16 R/B               
1 24298U 96051B   25351.30452403  .00000004  00000+0  28651-4 0  9992
2 24298  70.7595 349.6214 0019462 255.7073 104.1885 14.12397349510017
ORBVIEW 2 (SEASTAR)     
1 24883U 97037A   25351.30676522  .00000249  00000+0  10286-3 0  9992
2 24883  98.8458 148.4962 0001466 323.8840  36.2246 14.35420533496651
SL-16 R/B               
1 25400U 98043G   25351.28891707  .00000050  00000+0  39817-4 0  9999
2 25400  98.8131 299.1325 0008806 251.9623 108.0598 14.26026725427249
SL-16 R/B               
1 25407U 98045B   25351.28527949 -.00000022  00000+0  12882-4 0  9995
2 25407  71.0115 354.8674 0006683 169.7790 190.3470 14.16174530415437
ISS (ZARYA)             
1 25544U 98067A   25351.05542497  .00007770  00000+0  14583-3 0  9996
2 25544  51.6309 121.1077 0003173 260.4156  99.6474 15.49629327543529
CZ-4B R/B               
1 25732U 99025C   25351.11586089  .00000067  00000+0  53141-4 0  9998
2 25732  98.6763  32.2979 0036457 221.1385 162.2668 14.18244741376462
OKEAN-O                 
1 25860U 99039A   25351.18364396  .00000676  00000+0  95901-4 0  9993
2 25860  97.9599  46.8469 0000894 106.8225 253.3085 14.80169294422180
SL-16 R/B               
1 25861U 99039B   25351.17446163  .00000531  00000+0  74385-4 0  9999
2 25861  98.0122  45.3260 0015269 160.4611 199.7190 14.81593052424642
DELTA 2 R/B             
1 25876U 99041E   25351.17466872  .00000980  00000+0  19766-3 0  9996
2 25876  51.7615 270.7424 0504607 104.8388 260.8984 14.11413152351374
HELIOS 1B               
1 25977U 99064A   25351.31105153  .00001649  00000+0  18925-3 0  9990
2 25977  98.1757 246.1122 0001485  38.0094 322.1226 14.87300908673014
TERRA                   
1 25994U 99068A   25351.32443583  .00000426  00000+0  96205-4 0  9996
2 25994  97.9744  42.8406 0003582  85.5469 342.7547 14.60907171383057
SL-16 R/B               
1 26070U 00006B   25351.20863221 -.00000244  00000+0 -99403-4 0  9991
2 26070  71.0024 271.2612 0018573 302.6229  57.3101 14.15809265336886
TITAN 4B R/B            
1 26474U 00047B   25351.25085188  .00002903  00000+0  18949-3 0  9994
2 26474  67.9898 272.1851 0038607 139.1222 221.2834 15.08815223380471
ENVISAT                 
1 27386U 02009A   25351.36570311  .00000101  00000+0  46452-4 0  9995
2 27386  98.3607 301.9891 0001138  84.6063  28.7669 14.39000985247338
IDEFIX & ARIANE 42P R/B 
1 27422U 02021B   25351.33804079  .00000248  00000+0  11103-3 0  9994
2 27422  98.5792 285.9693 0012939  71.3318 288.9268 14.30953797232242
AQUA                    
1 27424U 02022A   25351.35516856  .00000906  00000+0  19120-3 0  9990
2 27424  98.4042 312.3093 0001264 113.4932   6.6916 14.61820032256700
CZ-4B R/B               
1 27432U 02024C   25351.17424551  .00000054  00000+0  51041-4 0  9994
2 27432  98.8994  39.9305 0049177 257.0441 172.5866 14.14528805217572
MIDORI II (ADEOS-II)    
1 27597U 02056A   25351.33597616  .00000229  00000+0  10798-3 0  9999
2 27597  98.7642 304.3165 0000426 152.9290 207.1914 14.29208918198534
H-2A R/B                
1 27601U 02056E   25351.36705700  .00000320  00000+0  12644-3 0  9997
2 27601  98.3071 309.9396 0071267  47.5647  67.2124 14.33680146202317
CZ-4B R/B               
1 28059U 03049C   25351.20341587  .00000319  00000+0  84795-4 0  9995
2 28059  98.6790 337.9360 0049187 122.6844 237.9110 14.54913473174604
CZ-2C R/B               
1 28222U 04012C   25351.30632608  .00032448  00000+0  46663-3 0  9995
2 28222  97.7422  44.3061 0016442 252.3952 107.5506 15.55858764191438
SL-16 R/B               
1 28353U 04021B   25351.28860947 -.00000181  00000+0 -69337-4 0  9991
2 28353  71.0011  45.4196 0005051 192.7999 167.2996 14.14579139111185
CZ-4B R/B               
1 28415U 04035C   25351.08174507  .00006967  00000+0  25845-3 0  9994
2 28415  97.3606  21.3683 0031531 261.2625  98.5042 15.27443434167293
CZ-2C R/B               
1 28480U 04046B   25351.30636769  .00000180  00000+0  81952-4 0  9999
2 28480  98.1992 266.4004 0140301  38.8888 322.2287 14.26943332 96756
